<?xml version="1.0" encoding="UTF-8"?>
<kml xmlns="http://www.opengis.net/kml/2.2">
  <Document>
    <name>Barcelona trip</name>
    <Folder>
      <name>Day 1 · 8/31 월 · 도착 · 에이샴플레 야경</name>
      <Placemark>
        <name>1. 바르셀로나 엘프라트 공항</name>
        <description>19:00 전후 · 입국·이동
실제 항공편과 도착 터미널은 확인 필요.</description>
        <Point><coordinates>2.0833,41.2974,0</coordinates></Point>
      </Placemark>
      <Placemark>
        <name>2. 숙소 체크인</name>
        <description>20:30–21:00 예상 · 약 20분
늦은 체크인 가능 여부를 미리 확인.</description>
        <Point><coordinates>2.1578355,41.3921707,0</coordinates></Point>
      </Placemark>
      <Placemark>
        <name>3. Cervecería Catalana</name>
        <description>21:15–22:30 · 약 75분
예약 없이 방문. 당일 타파스 메뉴를 보고 소량씩 주문.</description>
        <Point><coordinates>2.160831,41.392969,0</coordinates></Point>
      </Placemark>
      <Placemark>
        <name>4. 카사 밀라 외관</name>
        <description>22:30 · 약 15분
야간 외관 감상.</description>
        <Point><coordinates>2.16196,41.39538,0</coordinates></Point>
      </Placemark>
      <Placemark>
        <name>5. 카사 바트요 외관</name>
        <description>22:50 · 약 15분
Passeig de Gràcia를 따라 산책 후 숙소 복귀.</description>
        <Point><coordinates>2.16495,41.39165,0</coordinates></Point>
      </Placemark>
    </Folder>
    <Folder>
      <name>Day 2 · 9/1 · 가우디 투어 · 사그라다 · 그라시아 쇼핑</name>
      <Placemark>
        <name>1. 가우디 투어 집합 · 카사 바트요</name>
        <description>07:50 · 투어 시작
실제 집합 장소는 예약 바우처 기준으로 확인.</description>
        <Point><coordinates>2.16495,41.39165,0</coordinates></Point>
      </Placemark>
      <Placemark>
        <name>2. 가우디 투어</name>
        <description>07:50–13:50 · 6시간
카사 바트요·카사 밀라·구엘공원·카사 비센스·사그라다 일정으로 파악됨.</description>
        <Point><coordinates>2.15269,41.41449,0</coordinates></Point>
      </Placemark>
      <Placemark>
        <name>3. 간단한 점심</name>
        <description>14:00–14:15 · 약 15분
산 파우 방문 시 테이크아웃 위주. 투어 종료 위치가 멀면 산 파우 대신 점심을 여유롭게.</description>
        <Point><coordinates>2.173774,41.407188,0</coordinates></Point>
      </Placemark>
      <Placemark>
        <name>4. 산 파우 모더니즘 지구</name>
        <description>14:15–15:10 · 약 55분
온라인 예매 권장. 시간 부족 시 생략 가능한 조건부 일정.</description>
        <Point><coordinates>2.174328,41.411214,0</coordinates></Point>
      </Placemark>
      <Placemark>
        <name>5. 사그라다 파밀리아 내부</name>
        <description>16:00–17:00 · 1시간
15:30까지 도착. 지정 시간 온라인 입장권 예약 완료.</description>
        <Point><coordinates>2.174356,41.403629,0</coordinates></Point>
      </Placemark>
      <Placemark>
        <name>6. 산 파우 병원</name>
        <description>13:50 이후 · 도보
투어 종료 후 사그라다에서 걸어 이동.</description>
        <Point><coordinates>2.17444,41.41278,0</coordinates></Point>
      </Placemark>
      <Placemark>
        <name>8. 사그라다 파밀리아</name>
        <description>16:00–17:00 · 1시간
내부 입장 확정. 투어와 별도 예약.</description>
        <Point><coordinates>2.1744,41.4036,0</coordinates></Point>
      </Placemark>
      <Placemark>
        <name>9. Passeig de Gràcia 쇼핑</name>
        <description>17:00 이후 · 1–2시간
메트로/도보. Zara · Massimo Dutti · Camper · Casa Batlló 외관 · Casa Amatller.</description>
        <Point><coordinates>2.1649,41.3916,0</coordinates></Point>
      </Placemark>
      <Placemark>
        <name>10. 숙소 · 휴식</name>
        <description>쇼핑 후 · 30–60분
짐 내려놓고 휴식.</description>
        <Point><coordinates>2.1578355,41.3921707,0</coordinates></Point>
      </Placemark>
      <Placemark>
        <name>11. 숙소 근처 저녁</name>
        <description>저녁 · 90분
후보: La Bodegueta Provença · Vinitus · Cerveceria Catalana · 2254 Barcelona Restaurant · Vinitus Madrid-Barcelona</description>
        <Point><coordinates>2.1578355,41.3921707,0</coordinates></Point>
      </Placemark>
    </Folder>
    <Folder>
      <name>Day 3 · 9/2 수 · Sa Boadella · 지로나</name>
      <Placemark>
        <name>1. 숙소 출발</name>
        <description>08:00 · 대중교통 약 1시간 40~50분
구글맵에 표시되는 지하철·기차·버스 조합 이용.</description>
        <Point><coordinates>2.1578355,41.3921707,0</coordinates></Point>
      </Placemark>
      <Placemark>
        <name>2. Platja de sa Boadella</name>
        <description>10:00–12:00 · 물놀이 최대 2시간
마지막 구간은 경사진 흙길. 샤워·발 세척 후 환복.</description>
        <Point><coordinates>2.826021,41.699261,0</coordinates></Point>
      </Placemark>
      <Placemark>
        <name>3. Cala•Mar</name>
        <description>12:20–13:30 · 약 70분
해변 치링기토. 전날 인스타그램으로 영업·주방·예약 가능 여부 확인.</description>
        <Point><coordinates>2.826144,41.699209,0</coordinates></Point>
      </Placemark>
      <Placemark>
        <name>4. Lloret de Mar 버스터미널</name>
        <description>13:30 이후 · 해변에서 택시 권장
Girona행 직행버스 출발시각을 사전 확인.</description>
        <Point><coordinates>2.845045,41.700292,0</coordinates></Point>
      </Placemark>
      <Placemark>
        <name>5. 지로나역</name>
        <description>15:00–15:30 예상 · 도착
버스 도착 후 구시가지까지 도보 약 15분.</description>
        <Point><coordinates>2.816683,41.979383,0</coordinates></Point>
      </Placemark>
      <Placemark>
        <name>6. 오냐르 강 · 에펠 다리</name>
        <description>15:30–16:00 · 약 30분
강변의 색색 집과 함께 보는 대표 포토 스팟.</description>
        <Point><coordinates>2.824492,41.98448,0</coordinates></Point>
      </Placemark>
      <Placemark>
        <name>7. 유대인 지구 · 구시가지</name>
        <description>16:00–17:00 · 약 1시간
Carrer de la Força와 중세 골목 산책.</description>
        <Point><coordinates>2.825123,41.986015,0</coordinates></Point>
      </Placemark>
      <Placemark>
        <name>8. 지로나 대성당</name>
        <description>17:00–18:00 · 약 1시간
긴 계단과 외관 우선. 내부 입장은 현장 상황에 따라 선택.</description>
        <Point><coordinates>2.8253485,41.9864268,0</coordinates></Point>
      </Placemark>
      <Placemark>
        <name>9. 지로나 성벽</name>
        <description>18:00–18:40 · 약 40분
체력이 남을 때만 방문. 부족하면 생략.</description>
        <Point><coordinates>2.827261,41.98677,0</coordinates></Point>
      </Placemark>
      <Placemark>
        <name>10. 지로나 구시가지 저녁</name>
        <description>19:00–20:00 · 약 1시간
식당은 현장에서 선택. 20시대 Barcelona행 열차에 맞춰 종료.</description>
        <Point><coordinates>2.822736,41.985026,0</coordinates></Point>
      </Placemark>
      <Placemark>
        <name>11. 지로나역 · 바르셀로나 복귀</name>
        <description>20시대 · 열차 약 40~90분
가능하면 Passeig de Gràcia 정차편 선택. 열차 사전예매 권장.</description>
        <Point><coordinates>2.816683,41.979383,0</coordinates></Point>
      </Placemark>
    </Folder>
    <Folder>
      <name>Day 4 · 9/3 목 · 고딕지구 · 보른</name>
      <Placemark>
        <name>1. 바르셀로나 대성당</name>
        <description>10:30–11:30 · 약 1시간
유료 문화관람권은 온라인 구매 가능하지만 필수는 아님.</description>
        <Point><coordinates>2.176199,41.383962,0</coordinates></Point>
      </Placemark>
      <Placemark>
        <name>2. 고딕지구 산책</name>
        <description>11:30–12:30 · 약 1시간
왕의 광장·산 펠립 네리 광장과 골목 산책.</description>
        <Point><coordinates>2.175016,41.383515,0</coordinates></Point>
      </Placemark>
      <Placemark>
        <name>3. Bar Cañete</name>
        <description>13:00–14:20 · 약 80분
예약 성공 시 방문. 실패하면 El Xampanyet으로 변경.</description>
        <Point><coordinates>2.172857,41.379695,0</coordinates></Point>
      </Placemark>
      <Placemark>
        <name>4. 팔라우 데 라 무지카</name>
        <description>14시대 · 약 50분
건축 투어 시간 지정 사전예매 권장.</description>
        <Point><coordinates>2.175312,41.387575,0</coordinates></Point>
      </Placemark>
      <Placemark>
        <name>5. El Xampanyet</name>
        <description>Bar Cañete 실패 시 · 약 60분
예약 불가. 안초비·절임류와 카바 중심의 가벼운 타파스 대안.</description>
        <Point><coordinates>2.180867,41.385973,0</coordinates></Point>
      </Placemark>
      <Placemark>
        <name>6. 보른 지구</name>
        <description>16:00–17:30 · 약 90분
Santa Maria del Mar·편집숍·카페를 천천히 둘러봅니다.</description>
        <Point><coordinates>2.182086,41.384853,0</coordinates></Point>
      </Placemark>
      <Placemark>
        <name>7. 숙소 휴식</name>
        <description>18:00–19:30 · 약 90분
저녁 전 숙소에서 쉬는 시간.</description>
        <Point><coordinates>2.1578355,41.3921707,0</coordinates></Point>
      </Placemark>
      <Placemark>
        <name>8. Bivio</name>
        <description>20:00–22:00 · 약 2시간
Port Vell의 지중해식 스테이크하우스. 원하는 메뉴는 예약 전 확인.</description>
        <Point><coordinates>2.188662,41.376111,0</coordinates></Point>
      </Placemark>
    </Folder>
    <Folder>
      <name>Day 5 · 9/4 금 · 쇼핑 · 먹부림</name>
      <Placemark>
        <name>1. Hofmann Turó Park</name>
        <description>08:30–09:30 · 약 1시간
마스카르포네 크루아상과 커피. 좌석 예약보다는 오전 방문.</description>
        <Point><coordinates>2.143442,41.39257,0</coordinates></Point>
      </Placemark>
      <Placemark>
        <name>2. Casa Batlló Gold</name>
        <description>10시대 선택 · 약 1시간 15분
내부 관람이 중요할 때만 시간 지정 티켓 예매.</description>
        <Point><coordinates>2.16495,41.39165,0</coordinates></Point>
      </Placemark>
      <Placemark>
        <name>3. Passeig de Gràcia 쇼핑</name>
        <description>10:00–13:30 · 약 3시간 30분
Zara·Massimo Dutti·Camper·Thinking MU와 가우디 건축물 외관.</description>
        <Point><coordinates>2.164813,41.393424,0</coordinates></Point>
      </Placemark>
      <Placemark>
        <name>4. 메뉴 델 디아 점심</name>
        <description>13:30–14:30 · 약 1시간
쇼핑 동선에서 당일 메뉴가 좋은 식당을 선택.</description>
        <Point><coordinates>2.16827,41.39075,0</coordinates></Point>
      </Placemark>
      <Placemark>
        <name>5. El Corte Inglés</name>
        <description>15:00–16:00 · 약 1시간
쇼핑과 상층 푸드코트·전망.</description>
        <Point><coordinates>2.170069,41.387323,0</coordinates></Point>
      </Placemark>
      <Placemark>
        <name>6. Mercadona</name>
        <description>16:00–17:00 · 약 1시간
과자·초콜릿·올리브 등 포장 간식과 기념품 쇼핑.</description>
        <Point><coordinates>2.176183,41.390147,0</coordinates></Point>
      </Placemark>
      <Placemark>
        <name>7. 숙소 휴식 · 짐 정리</name>
        <description>17:30–19:00 · 약 90분
쇼핑한 물건을 정리하고 저녁 전 휴식.</description>
        <Point><coordinates>2.1578355,41.3921707,0</coordinates></Point>
      </Placemark>
      <Placemark>
        <name>8. Vinitus</name>
        <description>19:30–21:30 · 약 2시간
예약 없이 방문. 저녁 피크 전에 도착해 대기시간을 줄입니다.</description>
        <Point><coordinates>2.165765,41.390702,0</coordinates></Point>
      </Placemark>
      <Placemark>
        <name>9. Bilmonte Gelato</name>
        <description>21:30 이후 · 약 30분
피스타치오·헤이즐넛 젤라토. 당일 영업시간 재확인.</description>
        <Point><coordinates>2.162488,41.389754,0</coordinates></Point>
      </Placemark>
    </Folder>
    <Folder>
      <name>Day 6 · 9/5 토 · 여유로운 출국일</name>
      <Placemark>
        <name>1. 체크아웃 · 짐 보관</name>
        <description>09:00 전후 · 약 20분
정확한 체크아웃 시각과 짐 보관 가능 여부 확인.</description>
        <Point><coordinates>2.1578355,41.3921707,0</coordinates></Point>
      </Placemark>
      <Placemark>
        <name>2. 숙소 주변 브런치</name>
        <description>09:30–11:00 · 약 90분
당일 컨디션에 따라 가까운 카페 선택.</description>
        <Point><coordinates>2.161255,41.392336,0</coordinates></Point>
      </Placemark>
      <Placemark>
        <name>3. 마지막 쇼핑 · 산책</name>
        <description>11:00–12:30 · 약 90분
빠뜨린 물건만 사고 숙소에서 멀리 이동하지 않습니다.</description>
        <Point><coordinates>2.164994,41.391657,0</coordinates></Point>
      </Placemark>
      <Placemark>
        <name>4. 가벼운 점심</name>
        <description>12:30–13:30 · 약 1시간
항공편 시각에 따라 앞당기거나 생략.</description>
        <Point><coordinates>2.159982,41.39202,0</coordinates></Point>
      </Placemark>
      <Placemark>
        <name>5. 숙소에서 짐 회수</name>
        <description>14:00 전후 · 약 20분
예시 시각이며 항공편 출발시각에 맞춰 조정.</description>
        <Point><coordinates>2.1578355,41.3921707,0</coordinates></Point>
      </Placemark>
      <Placemark>
        <name>6. 바르셀로나 엘프라트 공항</name>
        <description>항공편 3시간 전 도착 · 출국 수속
출발시각·터미널·수하물 마감시간 확인 필요.</description>
        <Point><coordinates>2.0833,41.2974,0</coordinates></Point>
      </Placemark>
    </Folder>
  </Document>
</kml>
