<?xml version="1.0" encoding="UTF-8"?>
<kml xmlns="http://www.opengis.net/kml/2.2">
  <Document>
    <name>Day 1 · 도착 · 구시가지 워킹</name>
    <description>도착 후 짐을 풀고, 바르셀로나의 옛 골목과 시장·항구를 천천히 익히는 날.</description>
    <Placemark>
      <name>1. 플라사 카탈루냐</name>
      <description>오후 · 30분
시내 중심. 메트로·버스 환승 허브.</description>
      <Point><coordinates>2.1701,41.387,0</coordinates></Point>
    </Placemark>
    <Placemark>
      <name>2. 람블라스 거리</name>
      <description>오후 · 40분
산책용. 너무 오래 머물지 말고 골목으로 빠지세요.</description>
      <Point><coordinates>2.1733,41.381,0</coordinates></Point>
    </Placemark>
    <Placemark>
      <name>3. 보케리아 시장</name>
      <description>오후 · 45분
과일·주스·타파스. 점심 겸 가볍게.</description>
      <Point><coordinates>2.1716,41.3817,0</coordinates></Point>
    </Placemark>
    <Placemark>
      <name>4. 바르셀로나 대성당</name>
      <description>오후 · 45분
고딕 지구 입구. 주변 골목 산책.</description>
      <Point><coordinates>2.1762,41.384,0</coordinates></Point>
    </Placemark>
    <Placemark>
      <name>5. 플라사 레이알</name>
      <description>저녁 전 · 20분
가우디 가로등이 있는 광장.</description>
      <Point><coordinates>2.1753,41.3802,0</coordinates></Point>
    </Placemark>
    <Placemark>
      <name>6. 산타 마리아 델 마르</name>
      <description>저녁 · 30분
보른 지구. 저녁 식사 추천 구역.</description>
      <Point><coordinates>2.1821,41.3836,0</coordinates></Point>
    </Placemark>
    <Placemark>
      <name>7. 바르셀로네타 해변</name>
      <description>일몰 · 60분
해질녘 산책. 피곤하면 보른에서 마무리해도 OK.</description>
      <Point><coordinates>2.1925,41.3785,0</coordinates></Point>
    </Placemark>
    <Placemark>
      <name>Day 1 route</name>
      <Style>
        <LineStyle><color>ff2a6fdb</color><width>4</width></LineStyle>
      </Style>
      <LineString>
        <tessellate>1</tessellate>
        <coordinates>2.1701,41.387,0 2.1733,41.381,0 2.1716,41.3817,0 2.1762,41.384,0 2.1753,41.3802,0 2.1821,41.3836,0 2.1925,41.3785,0</coordinates>
      </LineString>
    </Placemark>
  </Document>
</kml>
