<?xml version="1.0" encoding="UTF-8"?>
<kml xmlns="http://www.opengis.net/kml/2.2">
  <Document>
    <name>Day 2 · 가우디 핵심 루트</name>
    <description>바르셀로나의 상징인 가우디 건축을 오전~오후로 압축한 핵심 데이.</description>
    <Placemark>
      <name>1. 사그라다 파밀리아</name>
      <description>오전 09:30 · 2시간
타워 입장권이면 더 좋음. 정문 사진 포인트 확보.</description>
      <Point><coordinates>2.1744,41.4036,0</coordinates></Point>
    </Placemark>
    <Placemark>
      <name>2. 산트파우 병원</name>
      <description>오전~점심 · 90분
사그라다에서 도보 15분. 한적하고 사진 좋음.</description>
      <Point><coordinates>2.1745,41.4136,0</coordinates></Point>
    </Placemark>
    <Placemark>
      <name>3. 카사 바트요</name>
      <description>오후 · 45분
파세이그 데 그라시아. 외관 감상 또는 내부 투어.</description>
      <Point><coordinates>2.1649,41.3916,0</coordinates></Point>
    </Placemark>
    <Placemark>
      <name>4. 카사 밀라 (라 페드레라)</name>
      <description>오후 · 60분
옥상 굴뚝이 포인트. 바트요와 가까운 동선.</description>
      <Point><coordinates>2.1619,41.3954,0</coordinates></Point>
    </Placemark>
    <Placemark>
      <name>5. 파세이그 데 그라시아</name>
      <description>저녁 · 40분
쇼핑·카페. 저녁은 에이샴플레 또는 그라시아로.</description>
      <Point><coordinates>2.1648,41.391,0</coordinates></Point>
    </Placemark>
    <Placemark>
      <name>Day 2 route</name>
      <Style>
        <LineStyle><color>ff2a6fdb</color><width>4</width></LineStyle>
      </Style>
      <LineString>
        <tessellate>1</tessellate>
        <coordinates>2.1744,41.4036,0 2.1745,41.4136,0 2.1649,41.3916,0 2.1619,41.3954,0 2.1648,41.391,0</coordinates>
      </LineString>
    </Placemark>
  </Document>
</kml>
