<?xml version="1.0" encoding="UTF-8"?>
<kml xmlns="http://www.opengis.net/kml/2.2">
  <Document>
    <name>Barcelona trip</name>
    <Folder>
      <name>Day 1 · 8/31 · 도착 · 에이샴플레 저녁</name>
      <Placemark>
        <name>1. 바르셀로나 엘프라트 공항</name>
        <description>19:00 도착 · -
현지 시간 기준 대략 저녁 7시 도착.</description>
        <Point><coordinates>2.0833,41.2974,0</coordinates></Point>
      </Placemark>
      <Placemark>
        <name>2. 숙소 체크인</name>
        <description>밤 · -
짐 풀고 휴식. Day2 아침 투어 준비.</description>
        <Point><coordinates>2.1578355,41.3921707,0</coordinates></Point>
      </Placemark>
    </Folder>
    <Folder>
      <name>Day 2 · 9/1 · 가우디 투어 · 사그라다 내부</name>
      <Placemark>
        <name>1. 카사 바트요</name>
        <description>07:50 투어 시작 · 투어 포함
가우디 투어 1번째. 동선 확정.</description>
        <Point><coordinates>2.1649,41.3916,0</coordinates></Point>
      </Placemark>
      <Placemark>
        <name>2. 카사 밀라 (라 페드레라)</name>
        <description>투어 중 · 투어 포함
가우디 투어 2번째. 숙소(프로벤사)와 매우 가까움.</description>
        <Point><coordinates>2.1619,41.3954,0</coordinates></Point>
      </Placemark>
      <Placemark>
        <name>3. 구엘 공원</name>
        <description>투어 중 · 투어 포함
가우디 투어 3번째.</description>
        <Point><coordinates>2.1527,41.4145,0</coordinates></Point>
      </Placemark>
      <Placemark>
        <name>4. 카사 비센스</name>
        <description>투어 중 · 투어 포함
가우디 투어 4번째.</description>
        <Point><coordinates>2.1507,41.4035,0</coordinates></Point>
      </Placemark>
      <Placemark>
        <name>5. 사그라다 파밀리아 (투어)</name>
        <description>~13:50 투어 종료 · 투어 포함
가우디 투어 마지막. 07:50–13:50 구간 종료 지점.</description>
        <Point><coordinates>2.1744,41.4036,0</coordinates></Point>
      </Placemark>
      <Placemark>
        <name>7. 사그라다 파밀리아 내부 투어</name>
        <description>16:00–17:00 · 1시간
내부 입장 확정. 투어와 별도 예약.</description>
        <Point><coordinates>2.1744,41.4036,0</coordinates></Point>
      </Placemark>
    </Folder>
    <Folder>
      <name>Day 3 · 9/2 · 지로나 당일치기</name>
      <Placemark>
        <name>1. 바르셀로나 산츠 역</name>
        <description>오전 · -
지로나행 열차 탑승. 숙소(프로벤사)에서 메트로/도보+메트로로 이동.</description>
        <Point><coordinates>2.1400042,41.3790068,0</coordinates></Point>
      </Placemark>
      <Placemark>
        <name>2. 지로나 역</name>
        <description>오전 · 도착
구시가지까지 도보 10–15분.</description>
        <Point><coordinates>2.8167745,41.9794651,0</coordinates></Point>
      </Placemark>
      <Placemark>
        <name>3. 오냐르 강 · 색색 집들</name>
        <description>오전~점심 · 30분
지로나 대표 포토 스팟. 강변 다리에서 사진.</description>
        <Point><coordinates>2.8243548,41.9854374,0</coordinates></Point>
      </Placemark>
      <Placemark>
        <name>4. 유대인 지구 (엘 카이)</name>
        <description>오전~오후 · 45–60분
유럽에서 잘 보존된 유대인 지구. 골목 산책.</description>
        <Point><coordinates>2.8249,41.9858,0</coordinates></Point>
      </Placemark>
      <Placemark>
        <name>5. 지로나 대성당</name>
        <description>오후 · 45–60분
긴 계단이 포인트. 내부는 취향에 따라.</description>
        <Point><coordinates>2.8253485,41.9864268,0</coordinates></Point>
      </Placemark>
      <Placemark>
        <name>6. 아랍 목욕탕</name>
        <description>오후 · 30분
작지만 분위기 좋음. 시간이 없으면 패스 가능.</description>
        <Point><coordinates>2.8257024,41.9880582,0</coordinates></Point>
      </Placemark>
      <Placemark>
        <name>8. 지로나 → 바르셀로나 복귀</name>
        <description>저녁 · 열차 ~40분
산츠 역 도착 후 숙소로.</description>
        <Point><coordinates>2.8167745,41.9794651,0</coordinates></Point>
      </Placemark>
    </Folder>
    <Folder>
      <name>Day 4 · 9/3 · 미정</name>

    </Folder>
    <Folder>
      <name>Day 5 · 9/4 · 미정</name>

    </Folder>
    <Folder>
      <name>Day 6 · 9/5 · 출국</name>
      <Placemark>
        <name>2. 바르셀로나 엘프라트 공항</name>
        <description>오후 출발 (시각 미정) · -
정확한 출발 시각 업데이트 예정.</description>
        <Point><coordinates>2.0833,41.2974,0</coordinates></Point>
      </Placemark>
    </Folder>
  </Document>
</kml>
