<?xml version="1.0" encoding="UTF-8"?>
<kml xmlns="http://www.opengis.net/kml/2.2">
  <Document>
    <name>Day 1 · 8/31 월 · 도착 · 에이샴플레 야경</name>
    <description>19시 전후 공항 도착. 체크인 시각에 따라 저녁과 야경 산책만 진행합니다.</description>
    <Placemark>
      <name>1. 바르셀로나 엘프라트 공항</name>
      <description>19:00 전후 · 입국·이동
실제 항공편과 도착 터미널은 확인 필요.</description>
      <Point><coordinates>2.0833,41.2974,0</coordinates></Point>
    </Placemark>
    <Placemark>
      <name>2. 숙소 체크인</name>
      <description>20:30–21:00 예상 · 약 20분
늦은 체크인 가능 여부를 미리 확인.</description>
      <Point><coordinates>2.1578355,41.3921707,0</coordinates></Point>
    </Placemark>
    <Placemark>
      <name>3. Cervecería Catalana</name>
      <description>21:15–22:30 · 약 75분
예약 없이 방문. 당일 타파스 메뉴를 보고 소량씩 주문.</description>
      <Point><coordinates>2.160831,41.392969,0</coordinates></Point>
    </Placemark>
    <Placemark>
      <name>4. 카사 밀라 외관</name>
      <description>22:30 · 약 15분
야간 외관 감상.</description>
      <Point><coordinates>2.16196,41.39538,0</coordinates></Point>
    </Placemark>
    <Placemark>
      <name>5. 카사 바트요 외관</name>
      <description>22:50 · 약 15분
Passeig de Gràcia를 따라 산책 후 숙소 복귀.</description>
      <Point><coordinates>2.16495,41.39165,0</coordinates></Point>
    </Placemark>
    <Placemark>
      <name>Day 1 · 8/31 월 route</name>
      <Style>
        <LineStyle><color>ff2a6fdb</color><width>4</width></LineStyle>
      </Style>
      <LineString>
        <tessellate>1</tessellate>
        <coordinates>2.0833,41.2974,0 2.1578355,41.3921707,0 2.160831,41.392969,0 2.16196,41.39538,0 2.16495,41.39165,0</coordinates>
      </LineString>
    </Placemark>
  </Document>
</kml>
