<?xml version="1.0" encoding="UTF-8"?>
<kml xmlns="http://www.opengis.net/kml/2.2">
  <Document>
    <name>Day 2 · 9/1 · 가우디 투어 · 사그라다 · 그라시아 쇼핑</name>
    <description>07:50–13:50 가우디 투어 → 산 파우 병원 → 점심 → 16:00–17:00 사그라다 파밀리아 → Passeig de Gràcia 쇼핑 → 숙소 휴식 → 근처 저녁.</description>
    <Placemark>
      <name>1. 가우디 투어 집합 · 카사 바트요</name>
      <description>07:50 · 투어 시작
실제 집합 장소는 예약 바우처 기준으로 확인.</description>
      <Point><coordinates>2.16495,41.39165,0</coordinates></Point>
    </Placemark>
    <Placemark>
      <name>2. 가우디 투어</name>
      <description>07:50–13:50 · 6시간
카사 바트요·카사 밀라·구엘공원·카사 비센스·사그라다 일정으로 파악됨.</description>
      <Point><coordinates>2.15269,41.41449,0</coordinates></Point>
    </Placemark>
    <Placemark>
      <name>3. 간단한 점심</name>
      <description>14:00–14:15 · 약 15분
산 파우 방문 시 테이크아웃 위주. 투어 종료 위치가 멀면 산 파우 대신 점심을 여유롭게.</description>
      <Point><coordinates>2.173774,41.407188,0</coordinates></Point>
    </Placemark>
    <Placemark>
      <name>4. 산 파우 모더니즘 지구</name>
      <description>14:15–15:10 · 약 55분
온라인 예매 권장. 시간 부족 시 생략 가능한 조건부 일정.</description>
      <Point><coordinates>2.174328,41.411214,0</coordinates></Point>
    </Placemark>
    <Placemark>
      <name>5. 사그라다 파밀리아 내부</name>
      <description>16:00–17:00 · 1시간
15:30까지 도착. 지정 시간 온라인 입장권 예약 완료.</description>
      <Point><coordinates>2.174356,41.403629,0</coordinates></Point>
    </Placemark>
    <Placemark>
      <name>6. 산 파우 병원</name>
      <description>13:50 이후 · 도보
투어 종료 후 사그라다에서 걸어 이동.</description>
      <Point><coordinates>2.17444,41.41278,0</coordinates></Point>
    </Placemark>
    <Placemark>
      <name>8. 사그라다 파밀리아</name>
      <description>16:00–17:00 · 1시간
내부 입장 확정. 투어와 별도 예약.</description>
      <Point><coordinates>2.1744,41.4036,0</coordinates></Point>
    </Placemark>
    <Placemark>
      <name>9. Passeig de Gràcia 쇼핑</name>
      <description>17:00 이후 · 1–2시간
메트로/도보. Zara · Massimo Dutti · Camper · Casa Batlló 외관 · Casa Amatller.</description>
      <Point><coordinates>2.1649,41.3916,0</coordinates></Point>
    </Placemark>
    <Placemark>
      <name>10. 숙소 · 휴식</name>
      <description>쇼핑 후 · 30–60분
짐 내려놓고 휴식.</description>
      <Point><coordinates>2.1578355,41.3921707,0</coordinates></Point>
    </Placemark>
    <Placemark>
      <name>11. 숙소 근처 저녁</name>
      <description>저녁 · 90분
후보: La Bodegueta Provença · Vinitus · Cerveceria Catalana · 2254 Barcelona Restaurant · Vinitus Madrid-Barcelona</description>
      <Point><coordinates>2.1578355,41.3921707,0</coordinates></Point>
    </Placemark>
    <Placemark>
      <name>Day 2 · 9/1 route</name>
      <Style>
        <LineStyle><color>ff2a6fdb</color><width>4</width></LineStyle>
      </Style>
      <LineString>
        <tessellate>1</tessellate>
        <coordinates>2.1649,41.3916,0 2.1619,41.3954,0 2.1527,41.4145,0 2.1507,41.4035,0 2.1744,41.4036,0 2.17444,41.41278,0 2.1744,41.4036,0 2.1649,41.3916,0 2.1578355,41.3921707,0 2.1578355,41.3921707,0</coordinates>
      </LineString>
    </Placemark>
  </Document>
</kml>
